NORAD_CAT_ID,OBJECT_NAME,OBJECT_TYPE,EPOCH,MEAN_MOTION,ECCENTRICITY,INCLINATION,RA_OF_ASC_NODE,ARG_OF_PERICENTER,MEAN_ANOMALY,BSTAR,MEAN_MOTION_DOT,MEAN_MOTION_DDOT,TLE_LINE0,TLE_LINE1,TLE_LINE2,SEMIMAJOR_AXIS,PERIOD,APOGEE,PERIGEE,DECAYED
55314.0,STARLINK-5305,PAYLOAD,2024-07-03 20:24:51,14.9833415,0.0002757,70.0005,112.2209,267.4053,92.6791,-6.2513e-05,-8.39e-06,0.0,0 STARLINK-5305,1 55314U 23010AX  24185.85059180 -.00000839  00000-0 -62513-4 0  9993,2 55314  70.0005 112.2209 0002757 267.4053  92.6791 14.98334150 81503,6950.18,96.107,573.961,570.129,0.0
55314.0,STARLINK-5305,PAYLOAD,2024-07-03 22:00:59,14.98333632,0.000276,70.0005,112.0526,267.2592,92.8251,-6.3168e-05,-8.47e-06,0.0,0 STARLINK-5305,1 55314U 23010AX  24185.91735191 -.00000847  00000-0 -63168-4 0  9999,2 55314  70.0005 112.0526 0002760 267.2592  92.8251 14.98333632 82703,6950.182,96.107,573.965,570.128,0.0
55314.0,STARLINK-5305,PAYLOAD,2024-07-04 12:26:11,14.98331643,0.0002724,70.0007,110.5376,265.8113,94.2735,-8.9725e-05,-1.163e-05,0.0,0 STARLINK-5305,1 55314U 23010AX  24186.51819240 -.00001163  00000-0 -89725-4 0  9993,2 55314  70.0007 110.5376 0002724 265.8113  94.2735 14.98331643 82796,6950.188,96.107,573.946,570.16,0.0
55314.0,STARLINK-5305,PAYLOAD,2024-07-04 20:26:51,14.98330264,0.000265,70.0007,109.6959,270.4279,89.6577,2.1979e-05,1.69e-06,0.0,0 STARLINK-5305,1 55314U 23010AX  24186.85199059  .00000169  00000-0  21979-4 0  9999,2 55314  70.0007 109.6959 0002650 270.4279  89.6577 14.98330264 81659,6950.192,96.107,573.899,570.215,0.0
55314.0,STARLINK-5305,PAYLOAD,2024-07-04 22:03:00,14.98330257,0.0002655,70.0007,109.5275,270.392,89.6935,2.2215e-05,1.72e-06,0.0,0 STARLINK-5305,1 55314U 23010AX  24186.91875053  .00000172  00000-0  22215-4 0  9999,2 55314  70.0007 109.5275 0002655 270.3920  89.6935 14.98330257 82859,6950.192,96.107,573.902,570.212,0.0
55314.0,STARLINK-5305,PAYLOAD,2024-07-05 12:28:12,14.98329985,0.0002797,70.0003,108.0103,270.2925,89.7914,-2.7201e-05,-4.18e-06,0.0,0 STARLINK-5305,1 55314U 23010AX  24187.51959055 -.00000418  00000-0 -27201-4 0  9996,2 55314  70.0003 108.0103 0002797 270.2925  89.7914 14.98329985 82944,6950.193,96.107,574.002,570.114,0.0
55314.0,STARLINK-5305,PAYLOAD,2024-07-05 20:28:53,14.98325792,0.0002899,70.0002,107.1689,269.6616,90.4211,1.468e-05,8.2e-07,0.0,0 STARLINK-5305,1 55314U 23010AX  24187.85339177  .00000082  00000-0  14680-4 0  9992,2 55314  70.0002 107.1689 0002899 269.6616  90.4211 14.98325792 81809,6950.206,96.107,574.086,570.056,0.0
55314.0,STARLINK-5305,PAYLOAD,2024-07-05 22:05:01,14.98325486,0.0002915,70.0001,107.0005,269.3067,90.7758,2.4776e-05,2.03e-06,0.0,0 STARLINK-5305,1 55314U 23010AX  24187.92015169  .00000203  00000-0  24776-4 0  9994,2 55314  70.0001 107.0005 0002915 269.3067  90.7758 14.98325486 83008,6950.207,96.107,574.098,570.046,0.0
55314.0,STARLINK-5305,PAYLOAD,2024-07-06 04:29:33,14.9830671,0.0002603,70.0004,106.328,268.3279,91.7582,0.00041585,4.869e-05,0.0,0 STARLINK-5305,1 55314U 23010AX  24188.18719463  .00004869  00000-0  41585-3 0  9999,2 55314  70.0004 106.3280 0002603 268.3279  91.7582 14.98306710 81852,6950.265,96.108,573.939,570.321,0.0
55314.0,STARLINK-5305,PAYLOAD,2024-07-06 20:30:54,14.98326645,0.0002804,70.0003,104.6449,269.0313,91.0525,-2.1428e-05,-3.49e-06,0.0,0 STARLINK-5305,1 55314U 23010AX  24188.85479267 -.00000349  00000-0 -21428-4 0  9994,2 55314  70.0003 104.6449 0002804 269.0313  91.0525 14.98326645 81959,6950.203,96.107,574.017,570.119,0.0
55314.0,STARLINK-5305,PAYLOAD,2024-07-06 22:07:02,14.98326594,0.0002807,70.0003,104.4766,269.0333,91.0505,-2.1585e-05,-3.5e-06,0.0,0 STARLINK-5305,1 55314U 23010AX  24188.92155280 -.00000350  00000-0 -21585-4 0  9994,2 55314  70.0003 104.4766 0002807 269.0333  91.0505 14.98326594 83159,6950.203,96.107,574.019,570.118,0.0
55314.0,STARLINK-5305,PAYLOAD,2024-07-07 04:31:34,14.9833066,0.0002742,70.0006,103.8049,267.7364,92.3481,-3.3118e-05,-4.88e-06,0.0,0 STARLINK-5305,1 55314U 23010AX  24189.18859070 -.00000488  00000-0 -33118-4 0  9998,2 55314  70.0006 103.8049 0002742 267.7364  92.3481 14.98330660 83196,6950.191,96.107,573.962,570.15,0.0
55314.0,STARLINK-5305,PAYLOAD,2024-07-07 20:32:54,14.98330906,0.0002875,70.0003,102.1207,270.4119,89.671,4.7014e-05,4.68e-06,0.0,0 STARLINK-5305,1 55314U 23010AX  24189.85618759  .00000468  00000-0  47014-4 0  9995,2 55314  70.0003 102.1207 0002875 270.4119  89.6710 14.98330906 82104,6950.19,96.107,574.053,570.057,0.0
55314.0,STARLINK-5305,PAYLOAD,2024-07-08 10:58:07,14.98330487,0.0002775,70.0005,100.6064,269.3576,90.7265,7.7759e-06,0.0,0.0,0 STARLINK-5305,1 55314U 23010AX  24190.45702765  .00000000  00000-0  77759-5 0  9996,2 55314  70.0005 100.6064 0002775 269.3576  90.7265 14.98330487 83386,6950.191,96.107,573.985,570.128,0.0
55314.0,STARLINK-5305,PAYLOAD,2024-07-08 20:34:55,14.98328384,0.000275,70.0005,99.5965,270.3743,89.7101,1.1967e-05,5e-07,0.0,0 STARLINK-5305,1 55314U 23010AX  24190.85758890  .00000050  00000-0  11967-4 0  9993,2 55314  70.0005  99.5965 0002750 270.3743  89.7101 14.98328384 82258,6950.198,96.107,573.974,570.152,0.0
55314.0,STARLINK-5305,PAYLOAD,2024-07-08 22:11:03,14.98327713,0.0002771,70.0005,99.4281,270.6224,89.4618,3.4e-06,-5.2e-07,0.0,0 STARLINK-5305,1 55314U 23010AX  24190.92434958 -.00000052  00000-0  34000-5 0  9994,2 55314  70.0005  99.4281 0002771 270.6224  89.4618 14.98327713 83456,6950.2,96.107,573.991,570.139,0.0
55314.0,STARLINK-5305,PAYLOAD,2024-07-09 11:00:08,14.98329086,0.0002742,70.0005,98.0816,270.5062,89.5783,-9.1828e-06,-2.03e-06,0.0,0 STARLINK-5305,1 55314U 23010AX  24191.45842892 -.00000203  00000-0 -91828-5 0  9993,2 55314  70.0005  98.0816 0002742 270.5062  89.5783 14.98329086 83530,6950.196,96.107,573.966,570.155,0.0
55314.0,STARLINK-5305,PAYLOAD,2024-07-09 20:36:56,14.98329158,0.000268,70.0006,97.0713,268.5444,91.5408,-7.4728e-05,-9.84e-06,0.0,0 STARLINK-5305,1 55314U 23010AX  24191.85899058 -.00000984  00000-0 -74728-4 0  9998,2 55314  70.0006  97.0713 0002680 268.5444  91.5408 14.98329158 82400,6950.195,96.107,573.923,570.198,0.0
55314.0,STARLINK-5305,PAYLOAD,2024-07-09 22:13:04,14.98328829,0.0002686,70.0007,96.903,268.5354,91.5497,-7.6578e-05,-1.006e-05,0.0,0 STARLINK-5305,1 55314U 23010AX  24191.92575084 -.00001006  00000-0 -76578-4 0  9997,2 55314  70.0007  96.9030 0002686 268.5354  91.5497 14.98328829 83602,6950.197,96.107,573.928,570.195,0.0
55314.0,STARLINK-5305,PAYLOAD,2024-07-10 04:37:36,14.98331677,0.000266,70.0007,96.2296,267.9533,92.1321,-3.628e-05,-5.26e-06,0.0,0 STARLINK-5305,1 55314U 23010AX  24192.19278794 -.00000526  00000-0 -36280-4 0  9997,2 55314  70.0007  96.2296 0002660 267.9533  92.1321 14.98331677 83645,6950.188,96.107,573.901,570.204,0.0
55314.0,STARLINK-5305,PAYLOAD,2024-07-10 20:38:57,14.98327636,0.0002688,70.0007,94.5464,268.1431,91.942,8.9668e-07,-8.2e-07,0.0,0 STARLINK-5305,1 55314U 23010AX  24192.86038942 -.00000082  00000-0  89668-6 0  9996,2 55314  70.0007  94.5464 0002688 268.1431  91.9420 14.98327636 82559,6950.2,96.107,573.933,570.197,0.0
55314.0,STARLINK-5305,PAYLOAD,2024-07-10 22:15:05,14.98327618,0.0002691,70.0008,94.3781,268.1408,91.9443,7.5329e-07,-8.4e-07,0.0,0 STARLINK-5305,1 55314U 23010AX  24192.92714952 -.00000084  00000-0  75329-6 0  9996,2 55314  70.0008  94.3781 0002691 268.1408  91.9443 14.98327618 83756,6950.2,96.107,573.936,570.195,0.0
55314.0,STARLINK-5305,PAYLOAD,2024-07-11 03:03:29,14.98330081,0.0002663,70.0008,93.873,267.4255,92.66,2.4559e-05,2e-06,0.0,0 STARLINK-5305,1 55314U 23010AX  24193.12742739  .00000200  00000-0  24559-4 0  9999,2 55314  70.0008  93.8730 0002663 267.4255  92.6600 14.98330081 83789,6950.193,96.107,573.908,570.207,0.0
55314.0,STARLINK-5305,PAYLOAD,2024-07-12 03:05:30,14.98330843,0.0002664,70.0009,91.3481,262.6459,97.4398,5.9274e-05,6.14e-06,0.0,0 STARLINK-5305,1 55314U 23010AX  24194.12882507  .00000614  00000-0  59274-4 0  9999,2 55314  70.0009  91.3481 0002664 262.6459  97.4398 14.98330843 82748,6950.19,96.107,573.907,570.204,0.0
55314.0,STARLINK-5305,PAYLOAD,2024-07-12 11:06:10,14.98330577,0.0002592,70.0012,90.5052,271.4964,88.5898,1.4334e-05,7.8e-07,0.0,0 STARLINK-5305,1 55314U 23010AX  24194.46262698  .00000078  00000-0  14334-4 0  9991,2 55314  70.0012  90.5052 0002592 271.4964  88.5898 14.98330577 83983,6950.191,96.107,573.858,570.255,0.0
55314.0,STARLINK-5305,PAYLOAD,2024-07-12 22:19:07,14.98330002,0.0002818,70.0006,89.3275,272.6359,87.4477,-3.439e-05,-5.03e-06,0.0,0 STARLINK-5305,1 55314U 23010AX  24194.92994796 -.00000503  00000-0 -34390-4 0  9992,2 55314  70.0006  89.3275 0002818 272.6359  87.4477 14.98330002 84054,6950.193,96.107,574.016,570.099,0.0
55314.0,STARLINK-5305,PAYLOAD,2024-07-13 03:07:31,14.98333287,0.0002867,70.0006,88.823,273.5386,86.5445,1.426e-06,-7.6e-07,0.0,0 STARLINK-5305,1 55314U 23010AX  24195.13022458 -.00000076  00000-0  14260-5 0  9992,2 55314  70.0006  88.8230 0002867 273.5386  86.5445 14.98333287 82896,6950.183,96.107,574.04,570.055,0.0
55314.0,STARLINK-5305,PAYLOAD,2024-07-13 22:21:08,14.98330462,0.0002858,70.0006,86.8032,273.7091,86.3741,-3.9437e-05,-5.63e-06,0.0,0 STARLINK-5305,1 55314U 23010AX  24195.93134699 -.00000563  00000-0 -39437-4 0  9995,2 55314  70.0006  86.8032 0002858 273.7091  86.3741 14.98330462 84205,6950.191,96.107,574.043,570.07,0.0
55314.0,STARLINK-5305,PAYLOAD,2024-07-14 03:09:32,14.983342,0.0002838,70.0006,86.2983,273.9273,86.1562,5.1956e-06,-3.1e-07,0.0,0 STARLINK-5305,1 55314U 23010AX  24196.13162311 -.00000031  00000-0  51956-5 0  9990,2 55314  70.0006  86.2983 0002838 273.9273  86.1562 14.98334200 83040,6950.18,96.107,574.017,570.072,0.0
55314.0,STARLINK-5305,PAYLOAD,2024-07-14 09:34:04,14.9832407,0.0002753,70.0005,85.6249,260.9505,99.1343,0.00010998,1.219e-05,0.0,0 STARLINK-5305,1 55314U 23010AX  24196.39866615  .00001219  00000-0  10998-3 0  9993,2 55314  70.0005  85.6249 0002753 260.9505  99.1343 14.98324070 84278,6950.211,96.107,573.99,570.163,0.0
